{"fetched_at":"2026-03-29T16:36:15Z","count":15609,"tles":[{"name":"STARLINK-35922","line1":"1 66502U 25263T   26087.90107497  .00024024  00000+0  87911-3 0  9997","line2":"2 66502  43.0008 242.4929 0001878 278.4005  81.6633 15.27600798 21834","category":"Starlink"}]}