{
  "norad_id": 66502,
  "name": "STARLINK-35922",
  "history": [
    {
      "epoch": "2026-03-28T21:37:32.877408Z",
      "apogee_km": 484.2753391055894,
      "perigee_km": 481.6983009987789,
      "latitude_deg": -4.7078995864512896e-05,
      "longitude_deg": 91.79098464996564,
      "height_km": 482.5757630659819,
      "semi_major_axis_km": 6861.123820052184,
      "eccentricity": 0.0001878,
      "inclination_deg": 43.0008,
      "raan_deg": 242.4929,
      "arg_perigee_deg": 278.4005,
      "mean_anomaly_deg": 81.6633,
      "mean_motion_rev_day": 15.27600798
    }
  ]
}